CUTE-1 (CO-55)          
1 27844U 03031E   26187.98753248  .00000239  00000+0  12235-3 0  9991
2 27844  98.6738 196.2974 0010610 123.9275 236.2914 14.24347889194497
CUBESAT XI-IV (CO-57)   
1 27848U 03031J   26187.98593671  .00000199  00000+0  10620-3 0  9998
2 27848  98.6770 195.9925 0010187 141.0143 219.1771 14.23631325194191
CUBESAT XI-V            
1 28895U 05043F   26187.90288029  .00001301  00000+0  21205-3 0  9993
2 28895  98.3006 343.9413 0014934 139.5987 220.6332 14.72686848104658
CUTE-1.7+APD II (CO-65) 
1 32785U 08021C   26188.13474029  .00003527  00000+0  22322-3 0  9991
2 32785  97.8289 169.9714 0007586 332.5664  27.5163 15.09652011988203
CANX-2                  
1 32790U 08021H   26187.89283227  .00003687  00000+0  25885-3 0  9991
2 32790  97.8648 168.0555 0009662 346.4570  13.6395 15.05766170987770
SEEDS II (CO-66)        
1 32791U 08021J   26187.97759588  .00013488  00000+0  41928-3 0  9995
2 32791  97.7526 186.8299 0002095 175.3299 184.7963 15.33467667990324
SWISSCUBE               
1 35932U 09051B   26187.73580808  .00000901  00000+0  18748-3 0  9990
2 35932  98.4019  95.9636 0007377 142.1539 218.0181 14.62519591892016
BEESAT-1                
1 35933U 09051C   26187.68699793  .00000825  00000+0  17521-3 0  9992
2 35933  98.3946  95.5083 0005594 152.8546 207.2947 14.61752775892036
ITUPSAT1                
1 35935U 09051E   26187.96902507  .00000669  00000+0  14806-3 0  9994
2 35935  98.4029  94.9654 0007491 167.2439 192.8951 14.60470414891621
TISAT 1                 
1 36799U 10035E   26187.38438784  .00019611  00000+0  62689-3 0  9993
2 36799  98.0714 135.6467 0004016 127.7784 232.3820 15.32488033870646
AEROCUBE 4.5A           
1 38767U 12048K   26180.81601320  .02026816  74244-5  11805-2 0  9992
2 38767  64.6148 340.0554 0018867 267.4936  92.4076 16.17962819374686
STRAND-1                
1 39090U 13009E   26187.96776610  .00000244  00000+0  96432-4 0  9997
2 39090  98.3931   7.7160 0008934 164.1358 196.0110 14.37175365699902
BRITE-AUSTRIA           
1 39091U 13009F   26187.43200206  .00000186  00000+0  77696-4 0  9999
2 39091  98.4004   6.3921 0010220 175.9573 184.1698 14.36550054699815
NEE-01 PEGASO           
1 39151U 13018B   26187.89325462  .00002680  00000+0  25827-3 0  9997
2 39151  98.1252 332.6981 0013985  99.0383 261.2419 14.93765912713641
POPACS 2                
1 39269U 13055E   26185.82184007  .00027129 -75250-6  44971-3 0  9990
2 39269  80.9915 124.0034 0415832 137.1605 226.2823 14.91720341665849
POPACS 3                
1 39270U 13055F   26188.04352826  .00008998  00000+0  21283-3 0  9992
2 39270  80.9994 207.6517 0549801   9.5415 351.5717 14.56515300641449
ZACUBE-1 (TSHEPISOSAT)  
1 39417U 13066B   26187.93669309  .00002201  00000+0  17263-3 0  9995
2 39417  97.8024 150.3724 0043453 181.7019 178.4064 15.01303291683691
WNISAT-1                
1 39423U 13066H   26187.90665687  .00001170  00000+0  22013-3 0  9997
2 39423  97.7226 335.6656 0163304 169.3114 191.1628 14.58106417669604
TRITON-1                
1 39427U 13066M   26188.21704491  .00001736  00000+0  21186-3 0  9991
2 39427  97.8222  97.5668 0089929 168.0407 192.2971 14.81777473677056
GOMX-1                  
1 39430U 13066Q   26188.20481108  .00001852  00000+0  28242-3 0  9990
2 39430  97.6473  27.4036 0129018  13.8510 346.6182 14.69530606672856
CUBEBUG-2 (LO-74)       
1 39440U 13066AA  26187.42111588  .00003781  00000+0  35018-3 0  9998
2 39440  97.8914 136.4829 0056283 325.3135  34.4418 14.93929798679860
NEE-02 KRYSAOR          
1 39441U 13066AB  26187.25670692  .00002860  00000+0  31544-3 0  9993
2 39441  97.8890 126.3363 0066249   8.6556 351.5786 14.86713200679037
FUNCUBE-1 (AO-73)       
1 39444U 13066AE  26187.87556615  .00006051  00000+0  37306-3 0  9990
2 39444  97.8282 159.7358 0037536 134.9216 225.5068 15.09744377682630
UWE-3                   
1 39446U 13066AG  26187.86577681  .00002328  00000+0  20239-3 0  9997
2 39446  97.8701 144.0754 0047462 253.6272 105.9728 14.97165972680529
BRITE-CA1 (TORONTO)     
1 40020U 14033L   26187.87747463  .00000913  00000+0  14459-3 0  9995
2 40020  97.9763 316.4452 0077849 213.0292 146.6041 14.72711122645115
DUCHIFAT-1              
1 40021U 14033M   26187.69409459  .00117855  00000+0  10018-2 0  9996
2 40021  98.0433 249.6610 0001149 272.1887  87.9241 15.69242725658805
NANOSATC-BR1            
1 40024U 14033Q   26187.67244897  .00013914  00000+0  45085-3 0  9994
2 40024  98.0714 221.7949 0005298 117.4350 242.7429 15.32129719656962
QB50P1                  
1 40025U 14033R   26187.98593056  .00006736  00000+0  32910-3 0  9990
2 40025  98.0969 200.5237 0009775 149.2946 210.8860 15.18579991656036
QB50P2                  
1 40032U 14033Y   26187.91077234  .00005002  00000+0  26834-3 0  9999
2 40032  98.0762 186.0224 0009359 106.7260 253.4998 15.15433513655652
PERSEUS-M2              
1 40037U 14033AD  26188.13514492  .00002107  00000+0  19529-3 0  9997
2 40037  97.9967 139.0831 0010658 229.4066 130.6228 14.95571436653761
